     2              NAVIGATION DATA                         RINEX VERSION / TYPE
CCRINEXN V1.6.0 UX  CDDIS               19-FEB-26 06:09     PGM / RUN BY / DATE 
IGS BROADCAST EPHEMERIS FILE                                COMMENT             
    0.1583D-07 -0.7451D-08 -0.5960D-07  0.5960D-07          ION ALPHA           
    0.1229D+06 -0.6554D+05 -0.1311D+06 -0.6554D+05          ION BETA            
   -0.186264514923D-08-0.888178419700D-14   589824     2406 DELTA-UTC: A0,A1,T,W
    18                                                      LEAP SECONDS        
                                                            END OF HEADER       
30 26  2 19  6  0  0.0 0.126186292618D-03 0.127329258248D-10 0.000000000000D+00
    0.840000000000D+02-0.617812500000D+02 0.478591363823D-08-0.104628410564D+01
   -0.329129397869D-05 0.801565370057D-02 0.126454979181D-04 0.515377332878D+04
    0.367200000000D+06 0.210478901863D-06 0.160503357792D+00 0.931322574615D-07
    0.936657540803D+00 0.120031250000D+03-0.232786099858D+01-0.815533970263D-08
   -0.310012913282D-09 0.100000000000D+01 0.240600000000D+04 0.000000000000D+00
    0.200000000000D+01 0.000000000000D+00 0.419095158577D-08 0.840000000000D+02
    0.360456000000D+06 0.400000000000D+01 0.000000000000D+00 0.000000000000D+00
32 26  2 19  6  0  0.0-0.860569998622D-04 0.179625203600D-10 0.000000000000D+00
    0.670000000000D+02-0.666562500000D+02 0.476448417418D-08 0.262339661196D+01
   -0.353902578354D-05 0.932112068403D-02 0.296719372273D-05 0.515372588539D+04
    0.367200000000D+06 0.000000000000D+00-0.886424390837D+00-0.162050127983D-06
    0.967618692220D+00 0.322843750000D+03-0.200612767061D+01-0.827391607039D-08
   -0.376444251843D-09 0.100000000000D+01 0.240600000000D+04 0.000000000000D+00
    0.200000000000D+01 0.000000000000D+00 0.931322574616D-09 0.670000000000D+02
    0.360018000000D+06 0.400000000000D+01 0.000000000000D+00 0.000000000000D+00
